[{"OBJECT_NAME":"STARLINK-6091","OBJECT_ID":"2023-046AC","EPOCH":"2026-03-09T22:00:01.999584","MEAN_MOTION":15.12146567,"ECCENTRICITY":0.00019288,"INCLINATION":42.9992,"RA_OF_ASC_NODE":144.7616,"ARG_OF_PERICENTER":284.3584,"MEAN_ANOMALY":155.5208,"EPHEMERIS_TYPE":0,"CLASSIFICATION_TYPE":"U","NORAD_CAT_ID":56119,"ELEMENT_SET_NO":999,"REV_AT_EPOCH":577,"BSTAR":0.00049828792,"MEAN_MOTION_DOT":8.529e-5,"MEAN_MOTION_DDOT":0},{"OBJECT_NAME":"OBJECT A","OBJECT_ID":"2024-110A","EPOCH":"2026-03-09T23:09:02.134656","MEAN_MOTION":15.1192128,"ECCENTRICITY":0.0007919,"INCLINATION":97.5675,"RA_OF_ASC_NODE":161.4531,"ARG_OF_PERICENTER":228.7681,"MEAN_ANOMALY":131.2868,"EPHEMERIS_TYPE":0,"CLASSIFICATION_TYPE":"U","NORAD_CAT_ID":60012,"ELEMENT_SET_NO":999,"REV_AT_EPOCH":9691,"BSTAR":0.00051932581,"MEAN_MOTION_DOT":8.842e-5,"MEAN_MOTION_DDOT":0}]
